{"type":"FeatureCollection","features":[{"type":"Feature","properties":{"NAME":"未命名线_1","__layerName":"1标段"},"geometry":{"type":"LineString","coordinates":[[109.7424087404,24.4600750187],[109.746785789,24.4618163926],[109.7579246157,24.4673418228],[109.7616541755,24.4692366385],[109.7648945406,24.4708651242],[109.7671569591,24.4720253418],[109.7701575575,24.4738632187],[109.7732737445,24.4760124032],[109.7757345964,24.4780704652],[109.7804120295,24.4816250116],[109.7844277067,24.4841622591],[109.7886376395,24.4863642379],[109.7971779136,24.4902635179],[109.8028544491,24.4934605565],[109.8068965648,24.4967760013],[109.8108481431,24.5008234848],[109.8154056683,24.507569329]]}}],"bbox":[109.7424087404,24.4600750187,109.8154056683,24.507569329]}