{"type":"FeatureCollection","features":[{"type":"Feature","properties":{"NAME":"弃渣点2","__layerName":"弃渣点2"},"geometry":{"type":"Polygon","coordinates":[[[109.6546127063,24.4075593848],[109.6549199369,24.4075837409],[109.6554578922,24.4073798983],[109.6561640391,24.4068916023],[109.6571025321,24.4062777328],[109.6572300617,24.4056032884],[109.6569724382,24.404318927],[109.6558426497,24.4034315046],[109.6549947042,24.4029865003],[109.6534678767,24.4027964891],[109.6518914945,24.4028224306],[109.6509027846,24.4031826395],[109.6504912295,24.403935577],[109.6504582057,24.4045305238],[109.6506916484,24.4050181245],[109.6513360644,24.4058459746],[109.6521680331,24.4066122872],[109.6531691672,24.4071502512],[109.6546127063,24.4075593848]]]}}],"bbox":[109.6504582057,24.4027964891,109.6572300617,24.4075837409]}