{"type":"FeatureCollection","features":[{"type":"Feature","properties":{"NAME":"弃渣点1","__layerName":"弃渣点1"},"geometry":{"type":"Polygon","coordinates":[[[109.8112420821,24.5000949344],[109.811652518,24.5001199246],[109.8119370508,24.4998751616],[109.8124764761,24.4993691396],[109.8131013489,24.4985418043],[109.8132484628,24.4982707466],[109.8133243006,24.498000034],[109.8130989682,24.4978976881],[109.8115957934,24.4972881532],[109.811394787,24.4972886178],[109.8108810373,24.4980631093],[109.8103306343,24.4987464392],[109.8102876553,24.4990290342],[109.8112420821,24.5000949344]]]}}],"bbox":[109.8102876553,24.4972881532,109.8133243006,24.5001199246]}