{"type":"FeatureCollection","features":[{"type":"Feature","properties":{"NAME":"水源保护区2","__layerName":"水源保护区2"},"geometry":{"type":"Polygon","coordinates":[[[109.6307942324,24.4217685327],[109.6318741715,24.4207163069],[109.6304622619,24.4200313908],[109.6291074089,24.4185162991],[109.6282225182,24.4159713344],[109.6263130359,24.4162578759],[109.6272881007,24.4195658513],[109.6293006133,24.4211922773],[109.6307942324,24.4217685327]]]}}],"bbox":[109.6263130359,24.4159713344,109.6318741715,24.4217685327]}