{"type":"FeatureCollection","name":"弃渣场","bbox":[108.73552391,24.5318436,108.84134064,24.74202629],"metadata":{"sourceFile":"G7221罗城至宜州段弃渣场9处.kml","coordinateSystem":"WGS84 (EPSG:4326)","sourcePlacemarkCount":9,"featureCount":9},"features":[{"type":"Feature","id":"spoil-site-1","properties":{"name":"K186+100左侧弃渣场","sourceLayer":"弃渣场","sourceFile":"G7221罗城至宜州段弃渣场9处.kml","objectType":"spoil-site","description":"分部：1分部<br/>属地：罗城<br/>计划弃方量：12.8万方<br/>临时占地：40.64亩<br/>Excel CAD占地面积：36661㎡<br/>拟堆放最大高度：3.5m<br/>更新状态：新增（采用变更选址资料边界）","编号":"1","分部":"1分部","属地":"罗城","计划弃方量":"12.8万方","临时占地":"40.64亩","CAD占地面积":"36661㎡","拟堆放最大高度":"3.5m","更新状态":"新增（采用变更选址资料边界）","stroke":"#ffd84a","stroke-opacity":1,"stroke-width":4,"fill":"#ff9f2f","fill-opacity":0.18},"geometry":{"type":"Polygon","coordinates":[[[108.83981944,24.74202626,0],[108.83982201,24.74202587,0],[108.83985399,24.74201897,0],[108.83985123,24.74194631,0],[108.83984615,24.74189716,0],[108.83982721,24.74184314,0],[108.83978705,24.74179493,0],[108.83979467,24.74173742,0],[108.83982578,24.74170401,0],[108.83987357,24.74168186,0],[108.83993748,24.74170433,0],[108.83992224,24.74174586,0],[108.8399538,24.74180881,0],[108.8399875,24.74185274,0],[108.84007688,24.74182553,0],[108.84015209,24.7417661,0],[108.84015958,24.741806,0],[108.84022453,24.74182268,0],[108.84025004,24.7418376,0],[108.8402735,24.74182858,0],[108.84025439,24.74177875,0],[108.84026119,24.74173172,0],[108.84026981,24.74169072,0],[108.84032849,24.74165652,0],[108.84036615,24.74159705,0],[108.84032747,24.74154885,0],[108.84030824,24.74149727,0],[108.84033537,24.7414454,0],[108.84041029,24.7414448,0],[108.84045831,24.74148475,0],[108.84051152,24.74151969,0],[108.84054365,24.74147605,0],[108.84059287,24.74150489,0],[108.84059445,24.74157784,0],[108.84059984,24.74162935,0],[108.84061141,24.74168864,0],[108.84070501,24.74164364,0],[108.84078952,24.7416286,0],[108.84082708,24.7415987,0],[108.8408956,24.74157352,0],[108.84094204,24.74159992,0],[108.84094771,24.74156018,0],[108.84090119,24.74146404,0],[108.8408989,24.74141722,0],[108.84092435,24.74139444,0],[108.84090957,24.7413273,0],[108.84094773,24.74128465,0],[108.84099166,24.74126205,0],[108.84095035,24.74117396,0],[108.84093601,24.7411292,0],[108.84081052,24.74094533,0],[108.84102597,24.74091019,0],[108.8411682,24.74096752,0],[108.84117844,24.74091774,0],[108.84119382,24.74083848,0],[108.84120678,24.7407513,0],[108.84122258,24.74069137,0],[108.84125444,24.74066562,0],[108.84132671,24.74065319,0],[108.84134064,24.74065288,0],[108.84134025,24.74063841,0],[108.8413191,24.74059503,0],[108.84129404,24.74054364,0],[108.84127639,24.7405061,0],[108.84126708,24.74048795,0],[108.84125776,24.7404698,0],[108.84123956,24.74043841,0],[108.84117557,24.74034441,0],[108.84109926,24.74018203,0],[108.84106894,24.74011266,0],[108.84104746,24.74003521,0],[108.84100336,24.73995857,0],[108.84099085,24.73993686,0],[108.84085484,24.73995057,0],[108.84082916,24.73995364,0],[108.84076815,24.73993643,0],[108.84068501,24.73996325,0],[108.84064338,24.7399752,0],[108.84055677,24.73997276,0],[108.84047636,24.73993515,0],[108.84041506,24.739874,0],[108.84038232,24.73978342,0],[108.83996718,24.7395786,0],[108.83984763,24.73983606,0],[108.8398458,24.73984297,0],[108.83986447,24.73987092,0],[108.83986427,24.73988566,0],[108.83988229,24.73993367,0],[108.83987975,24.73996851,0],[108.83986599,24.7399797,0],[108.83984418,24.73998495,0],[108.83982235,24.73998714,0],[108.83981704,24.73997679,0],[108.83981134,24.73996688,0],[108.83977477,24.74009897,0],[108.83975782,24.74022502,0],[108.83975105,24.74024742,0],[108.83975762,24.74026873,0],[108.83975865,24.74030444,0],[108.83976092,24.74034729,0],[108.83976667,24.74037953,0],[108.83972272,24.74038512,0],[108.83970899,24.74038707,0],[108.83969923,24.74041927,0],[108.83971421,24.74061851,0],[108.83973246,24.74061401,0],[108.83975337,24.74065152,0],[108.83977346,24.74069873,0],[108.83978468,24.74072038,0],[108.83978759,24.7407273,0],[108.83980559,24.74081762,0],[108.8398725,24.74080184,0],[108.83988416,24.7407711,0],[108.83995382,24.74076755,0],[108.83998883,24.74076977,0],[108.83999508,24.74077294,0],[108.84002636,24.74076556,0],[108.8400712,24.74071617,0],[108.84027106,24.74069991,0],[108.84028375,24.74088319,0],[108.84011435,24.74092935,0],[108.8399667,24.7411257,0],[108.84000518,24.74120258,0],[108.83960318,24.74129223,0],[108.83953977,24.7416378,0],[108.83950811,24.741796,0],[108.83960692,24.74182027,0],[108.83970679,24.74178065,0],[108.83980219,24.74192928,0],[108.83981924,24.74202542,0],[108.83981944,24.74202629,0],[108.83981944,24.74202626,0]]]}},{"type":"Feature","id":"spoil-site-2","properties":{"name":"K196+700右侧900m弃渣场","sourceLayer":"弃渣场","sourceFile":"G7221罗城至宜州段弃渣场9处.kml","objectType":"spoil-site","description":"分部：1分部<br/>属地：罗城<br/>计划弃方量：13.2万方<br/>临时占地：19.8亩<br/>Excel CAD占地面积：13199㎡<br/>拟堆放最大高度：10m<br/>更新状态：原设计保留<br/>原KML要素：堆渣线_51047","编号":"2","分部":"1分部","属地":"罗城","计划弃方量":"13.2万方","临时占地":"19.8亩","CAD占地面积":"13199㎡","拟堆放最大高度":"10m","更新状态":"原设计保留","原KML要素编号":"堆渣线_51047","stroke":"#ffd84a","stroke-opacity":1,"stroke-width":4,"fill":"#ff9f2f","fill-opacity":0.18},"geometry":{"type":"Polygon","coordinates":[[[108.81327354,24.65588735,0],[108.81344198,24.65586186,0],[108.81351776,24.65572224,0],[108.81399948,24.65554311,0],[108.81412295,24.65528439,0],[108.81425932,24.65534682,0],[108.81424518,24.65550932,0],[108.81432447,24.65552582,0],[108.81443578,24.65533824,0],[108.81522516,24.6550216,0],[108.81529411,24.65505803,0],[108.81537308,24.65506743,0],[108.81541269,24.65504955,0],[108.81577818,24.65505126,0],[108.81595573,24.65509722,0],[108.81605391,24.65520601,0],[108.81608354,24.65520615,0],[108.81618209,24.65517164,0],[108.816459,24.65518984,0],[108.81687322,24.65530912,0],[108.81710419,24.65532779,0],[108.81711019,24.65532828,0],[108.8172892,24.65511244,0],[108.8172907,24.65511245,0],[108.81731374,24.65511256,0],[108.81731374,24.65511256,0],[108.81737828,24.65460651,0],[108.8173561,24.65459964,0],[108.81735133,24.65459816,0],[108.81726348,24.65440817,0],[108.8172259,24.65437347,0],[108.81722417,24.65437188,0],[108.81631556,24.65434057,0],[108.81598994,24.65427587,0],[108.81579273,24.65421175,0],[108.81557612,24.65408436,0],[108.81545819,24.65397548,0],[108.8153896,24.65387586,0],[108.81534087,24.65375827,0],[108.81534122,24.65369508,0],[108.81534124,24.65369093,0],[108.81474087,24.65360427,0],[108.81465784,24.65401689,0],[108.81459756,24.65419716,0],[108.81459721,24.65426035,0],[108.81445721,24.65456664,0],[108.81444295,24.65459829,0],[108.81437799,24.65467985,0],[108.81377143,24.65542932,0],[108.81323431,24.65583819,0],[108.81327354,24.65588735,0]]]}},{"type":"Feature","id":"spoil-site-3","properties":{"name":"K198+800左侧弃渣场","sourceLayer":"弃渣场","sourceFile":"G7221罗城至宜州段弃渣场9处.kml","objectType":"spoil-site","description":"分部：2分部<br/>属地：罗城<br/>计划弃方量：11万方<br/>临时占地：20.2335亩<br/>Excel CAD占地面积：17269㎡<br/>拟堆放最大高度：10m<br/>更新状态：原设计保留<br/>原KML要素：堆渣线_50421","编号":"3","分部":"2分部","属地":"罗城","计划弃方量":"11万方","临时占地":"20.2335亩","CAD占地面积":"17269㎡","拟堆放最大高度":"10m","更新状态":"原设计保留","原KML要素编号":"堆渣线_50421","stroke":"#ffd84a","stroke-opacity":1,"stroke-width":4,"fill":"#ff9f2f","fill-opacity":0.18},"geometry":{"type":"Polygon","coordinates":[[[108.82035324,24.62695383,0],[108.81974433,24.62668293,0],[108.81972083,24.62668818,0],[108.81972064,24.62672378,0],[108.81972063,24.62672429,0],[108.81967125,24.62672406,0],[108.81961175,24.62676892,0],[108.81942416,24.62675902,0],[108.81942595,24.62677268,0],[108.81944311,24.62690356,0],[108.81935373,24.62699342,0],[108.81925482,24.62702004,0],[108.81907706,24.62701922,0],[108.81881077,24.62695479,0],[108.81867291,24.62688193,0],[108.81852547,24.62675486,0],[108.81850662,24.62659227,0],[108.81827983,24.62652802,0],[108.81820038,24.6266089,0],[108.81811069,24.62675293,0],[108.81809014,24.62689728,0],[108.81810964,24.62694251,0],[108.81830635,24.62708786,0],[108.81856167,24.62735085,0],[108.81871903,24.62746894,0],[108.81888641,24.62755999,0],[108.81900427,24.6276779,0],[108.81902357,24.62775924,0],[108.81900337,24.62784039,0],[108.81891379,24.62796636,0],[108.81878505,24.62802896,0],[108.81869617,24.62802855,0],[108.81855811,24.6279918,0],[108.81804582,24.62776373,0],[108.81786806,24.6277629,0],[108.81789728,24.62783526,0],[108.8181723,24.62810736,0],[108.8182112,24.62821588,0],[108.81817069,24.62839624,0],[108.81811089,24.62849527,0],[108.81798175,24.62863008,0],[108.81795162,24.62872022,0],[108.81801042,24.62880174,0],[108.81804005,24.62880188,0],[108.81826825,24.62861336,0],[108.81841689,24.62852377,0],[108.81850592,24.6284971,0],[108.81869346,24.62851603,0],[108.81878214,24.62855255,0],[108.8189001,24.6286524,0],[108.81894908,24.62872485,0],[108.81899786,24.62883341,0],[108.81901616,24.62909529,0],[108.81899535,24.62928478,0],[108.81894547,24.62937482,0],[108.81898392,24.62956458,0],[108.81887404,24.62978976,0],[108.81887333,24.62991615,0],[108.81897109,24.63009715,0],[108.81897004,24.63028673,0],[108.81891013,24.63040381,0],[108.81975222,24.631291,0],[108.82025234,24.63132265,0],[108.82111513,24.63134921,0],[108.82133079,24.63153076,0],[108.82141817,24.63119037,0],[108.8211616,24.63115082,0],[108.82023934,24.63088884,0],[108.82022109,24.6308703,0],[108.82022144,24.6308071,0],[108.82027122,24.63073511,0],[108.82028144,24.63067197,0],[108.82022264,24.63059045,0],[108.82012398,24.63057193,0],[108.82006522,24.63048139,0],[108.82007565,24.63038213,0],[108.8201354,24.63029213,0],[108.82012583,24.63023792,0],[108.82010618,24.63021977,0],[108.81983958,24.63020951,0],[108.81973139,24.63012776,0],[108.81968296,24.62995601,0],[108.81964536,24.62961279,0],[108.81965599,24.62947742,0],[108.81962706,24.6293509,0],[108.81972637,24.62925206,0],[108.81987471,24.62921663,0],[108.81988528,24.6290903,0],[108.81969864,24.62890888,0],[108.81970977,24.62868324,0],[108.81980005,24.62843088,0],[108.81992869,24.62838634,0],[108.81997807,24.62838657,0],[108.82001732,24.62843189,0],[108.8200667,24.62843212,0],[108.8200863,24.62845929,0],[108.82032282,24.62855066,0],[108.8205795,24.62856991,0],[108.82078649,24.62864308,0],[108.82080674,24.6285529,0],[108.82077756,24.62847152,0],[108.82064993,24.62833551,0],[108.82056134,24.62828094,0],[108.82044363,24.62813595,0],[108.82041476,24.6280004,0],[108.82050409,24.62791957,0],[108.8209872,24.62806624,0],[108.82117479,24.62807614,0],[108.8215799,24.6280419,0],[108.82163941,24.62799704,0],[108.82166953,24.6279069,0],[108.82129495,24.62777878,0],[108.82108811,24.62767852,0],[108.82092102,24.62753331,0],[108.82088715,24.62742284,0],[108.82088222,24.62740674,0],[108.82075458,24.62727073,0],[108.82055757,24.62717955,0],[108.82040998,24.62707956,0],[108.82036974,24.62701255,0],[108.82036105,24.62699808,0],[108.82035324,24.62695383,0]]]}},{"type":"Feature","id":"spoil-site-4","properties":{"name":"K202+900左侧弃渣场","sourceLayer":"弃渣场","sourceFile":"G7221罗城至宜州段弃渣场9处.kml","objectType":"spoil-site","description":"分部：2分部<br/>属地：宜州<br/>计划弃方量：45万方<br/>临时占地：77.54亩<br/>Excel CAD占地面积：51697.7㎡<br/>拟堆放最大高度：16.5m<br/>更新状态：原设计保留<br/>原KML要素：堆渣线_50691","编号":"4","分部":"2分部","属地":"宜州","计划弃方量":"45万方","临时占地":"77.54亩","CAD占地面积":"51697.7㎡","拟堆放最大高度":"16.5m","更新状态":"原设计保留","原KML要素编号":"堆渣线_50691","stroke":"#ffd84a","stroke-opacity":1,"stroke-width":4,"fill":"#ff9f2f","fill-opacity":0.18},"geometry":{"type":"Polygon","coordinates":[[[108.80841287,24.59676848,0],[108.8082171,24.59645045,0],[108.8082171,24.59645045,0],[108.80809163,24.59649565,0],[108.80807868,24.59650032,0],[108.8079604,24.59646365,0],[108.80783246,24.59639082,0],[108.80782389,24.59639639,0],[108.80751534,24.59659697,0],[108.80749203,24.59659686,0],[108.80748572,24.59659683,0],[108.80732835,24.59648775,0],[108.80713145,24.59638751,0],[108.80711391,24.5963899,0],[108.80674608,24.59643986,0],[108.80663722,24.59648448,0],[108.8065677,24.59655638,0],[108.80654708,24.59670975,0],[108.80649751,24.59674563,0],[108.80641842,24.59676331,0],[108.80626076,24.5967084,0],[108.80607413,24.59653599,0],[108.80594583,24.59652635,0],[108.8057875,24.5965888,0],[108.80567884,24.59659731,0],[108.80550199,24.596443,0],[108.80544275,24.59644272,0],[108.80537343,24.5964785,0],[108.8051354,24.59666696,0],[108.80508562,24.59673894,0],[108.80507524,24.59682917,0],[108.80522124,24.5972,0],[108.80523045,24.5973174,0],[108.80519044,24.59740749,0],[108.80506142,24.59752424,0],[108.80499175,24.59762322,0],[108.8049699,24.59799325,0],[108.80500914,24.59803857,0],[108.80506828,24.59805691,0],[108.80517689,24.59805742,0],[108.80531532,24.59802197,0],[108.80569148,24.59785222,0],[108.80572105,24.59786139,0],[108.80574054,24.59790662,0],[108.80574013,24.59797884,0],[108.80570018,24.5980599,0],[108.80558109,24.59816767,0],[108.80554118,24.5982397,0],[108.80550031,24.59848326,0],[108.80539983,24.59878972,0],[108.80538996,24.59878968,0],[108.80534003,24.59888875,0],[108.80527056,24.59895161,0],[108.80496376,24.59907655,0],[108.80486457,24.59915732,0],[108.80475498,24.59932833,0],[108.8047444,24.59948761,0],[108.80474419,24.59949078,0],[108.80480863,24.59955882,0],[108.80481289,24.59956333,0],[108.80498075,24.59956412,0],[108.80517868,24.59948381,0],[108.80545601,24.59933165,0],[108.80571374,24.59915232,0],[108.80606116,24.59882897,0],[108.80634037,24.59834279,0],[108.80653917,24.59810901,0],[108.80660849,24.59807323,0],[108.80669735,24.59807365,0],[108.80687431,24.5982099,0],[108.80699269,24.59822851,0],[108.80706195,24.59820176,0],[108.80715127,24.59812093,0],[108.807221,24.59801293,0],[108.80728116,24.59785071,0],[108.80732188,24.59763424,0],[108.8073717,24.59755322,0],[108.80756006,24.5974187,0],[108.80773809,24.59736537,0],[108.80773817,24.59736521,0],[108.80783546,24.59715478,0],[108.80783805,24.59714918,0],[108.80811501,24.59706021,0],[108.80823284,24.59706076,0],[108.80823349,24.59706077,0],[108.80824403,24.59694346,0],[108.80828378,24.59689851,0],[108.80829401,24.59683536,0],[108.80829909,24.59683268,0],[108.80841284,24.59677273,0],[108.80841287,24.59676848,0],[108.80841287,24.59676848,0]]]}},{"type":"Feature","id":"spoil-site-5","properties":{"name":"K205+700右侧弃渣场","sourceLayer":"弃渣场","sourceFile":"G7221罗城至宜州段弃渣场9处.kml","objectType":"spoil-site","description":"分部：2分部<br/>属地：宜州<br/>计划弃方量：11万方<br/>临时占地：24.32亩<br/>Excel CAD占地面积：16216㎡<br/>拟堆放最大高度：16m<br/>更新状态：新增（采用变更选址资料边界）","编号":"5","分部":"2分部","属地":"宜州","计划弃方量":"11万方","临时占地":"24.32亩","CAD占地面积":"16216㎡","拟堆放最大高度":"16m","更新状态":"新增（采用变更选址资料边界）","stroke":"#ffd84a","stroke-opacity":1,"stroke-width":4,"fill":"#ff9f2f","fill-opacity":0.18},"geometry":{"type":"Polygon","coordinates":[[[108.77985199,24.58210914,0],[108.77985289,24.58211174,0],[108.77985209,24.58210889,0],[108.77979914,24.58212002,0],[108.7796897,24.58214258,0],[108.77953289,24.58215191,0],[108.77944437,24.58215717,0],[108.77920371,24.58212862,0],[108.77911249,24.58214473,0],[108.77905219,24.58218003,0],[108.77898584,24.58224174,0],[108.77894171,24.58229002,0],[108.77890798,24.58232705,0],[108.77886078,24.58242093,0],[108.77878666,24.58256824,0],[108.7787191,24.58269032,0],[108.77867882,24.58273783,0],[108.77860083,24.58280129,0],[108.77850709,24.58285696,0],[108.77841093,24.58288755,0],[108.77828302,24.58292617,0],[108.77815522,24.58296477,0],[108.77807312,24.58298646,0],[108.77806742,24.58300731,0],[108.77917145,24.58376062,0],[108.77919498,24.58373394,0],[108.77923783,24.58368606,0],[108.77930046,24.58359648,0],[108.77932983,24.58355706,0],[108.77935631,24.58351371,0],[108.77938516,24.58345291,0],[108.77939144,24.58343008,0],[108.77939181,24.5833796,0],[108.77939904,24.5832705,0],[108.77941907,24.58318943,0],[108.77943296,24.58315263,0],[108.77944394,24.58309326,0],[108.77948983,24.58297917,0],[108.77950023,24.58295245,0],[108.77952738,24.58292027,0],[108.7795546,24.58288335,0],[108.77957216,24.58283416,0],[108.7795774,24.58280339,0],[108.77958086,24.5827247,0],[108.77958597,24.58268847,0],[108.77959378,24.58267524,0],[108.77962861,24.5826401,0],[108.77971421,24.58256153,0],[108.77973445,24.58254519,0],[108.77981461,24.58253017,0],[108.77986275,24.58252291,0],[108.77994992,24.58247558,0],[108.78015853,24.58231756,0],[108.77992064,24.5822909,0],[108.77985189,24.58210881,0],[108.77985199,24.58210914,0]]]}},{"type":"Feature","id":"spoil-site-6","properties":{"name":"K206+050右侧弃渣场","sourceLayer":"弃渣场","sourceFile":"G7221罗城至宜州段弃渣场9处.kml","objectType":"spoil-site","description":"分部：2分部<br/>属地：宜州<br/>计划弃方量：10万方<br/>临时占地：32.7213亩<br/>Excel CAD占地面积：21814㎡<br/>拟堆放最大高度：6.8m<br/>更新状态：新增（采用变更选址资料边界）","编号":"6","分部":"2分部","属地":"宜州","计划弃方量":"10万方","临时占地":"32.7213亩","CAD占地面积":"21814㎡","拟堆放最大高度":"6.8m","更新状态":"新增（采用变更选址资料边界）","stroke":"#ffd84a","stroke-opacity":1,"stroke-width":4,"fill":"#ff9f2f","fill-opacity":0.18},"geometry":{"type":"Polygon","coordinates":[[[108.77680625,24.57958346,0],[108.77684626,24.57974738,0],[108.77680782,24.57982199,0],[108.77660414,24.57996244,0],[108.77630462,24.58004117,0],[108.7761801,24.58013279,0],[108.77585539,24.58038619,0],[108.7757212,24.5805251,0],[108.77575876,24.58075688,0],[108.77582043,24.58089598,0],[108.77591974,24.58100828,0],[108.77597072,24.58117421,0],[108.77597335,24.58128154,0],[108.77600988,24.58140939,0],[108.77620498,24.58146218,0],[108.77653717,24.58146047,0],[108.77707903,24.58113735,0],[108.7771683,24.58096557,0],[108.77725224,24.58084291,0],[108.77748688,24.58066349,0],[108.7777799,24.58042645,0],[108.77754521,24.58037345,0],[108.77723352,24.58043247,0],[108.77697498,24.58043345,0],[108.77707877,24.58003914,0],[108.77704032,24.57995143,0],[108.77689293,24.57967963,0],[108.77680724,24.57958346,0],[108.77680625,24.57958346,0]]]}},{"type":"Feature","id":"spoil-site-7","properties":{"name":"K209+900左侧弃渣场","sourceLayer":"弃渣场","sourceFile":"G7221罗城至宜州段弃渣场9处.kml","objectType":"spoil-site","description":"分部：2分部<br/>属地：宜州<br/>计划弃方量：45万方<br/>临时占地：99.80亩<br/>Excel CAD占地面积：69873.3㎡<br/>拟堆放最大高度：15m<br/>更新状态：原设计保留<br/>原KML要素：堆渣线_50803","编号":"7","分部":"2分部","属地":"宜州","计划弃方量":"45万方","临时占地":"99.80亩","CAD占地面积":"69873.3㎡","拟堆放最大高度":"15m","更新状态":"原设计保留","原KML要素编号":"堆渣线_50803","stroke":"#ffd84a","stroke-opacity":1,"stroke-width":4,"fill":"#ff9f2f","fill-opacity":0.18},"geometry":{"type":"Polygon","coordinates":[[[108.78483055,24.55523813,0],[108.7844128,24.55546743,0],[108.78440564,24.55548801,0],[108.78436839,24.55559502,0],[108.78436775,24.55570335,0],[108.78437802,24.55571179,0],[108.78445616,24.55577601,0],[108.78445634,24.5557772,0],[108.7844841,24.55597114,0],[108.78448462,24.55597476,0],[108.78455318,24.55606537,0],[108.78452294,24.55617356,0],[108.78453244,24.5562368,0],[108.78460121,24.5562913,0],[108.78465009,24.55637279,0],[108.78474869,24.55639133,0],[108.78486681,24.55644607,0],[108.78486938,24.55645385,0],[108.78490561,24.55656362,0],[108.78490507,24.55665631,0],[108.78490503,24.55666293,0],[108.78490356,24.5569157,0],[108.78486355,24.55700578,0],[108.7847147,24.55714047,0],[108.78471418,24.55723075,0],[108.78477319,24.55726715,0],[108.78491132,24.55727685,0],[108.78496051,24.55730417,0],[108.78506714,24.55763872,0],[108.78513576,24.55772031,0],[108.78525388,24.55777505,0],[108.785461,24.55780314,0],[108.7855406,24.5576952,0],[108.78578809,24.55757001,0],[108.78588674,24.55757952,0],[108.78606388,24.55767066,0],[108.78612274,24.55773415,0],[108.78614206,24.55780646,0],[108.78642583,24.55823215,0],[108.78652395,24.55833194,0],[108.78675013,24.55847748,0],[108.78692596,24.55879431,0],[108.78694832,24.55881377,0],[108.78726672,24.55905765,0],[108.78728427,24.55887871,0],[108.78722333,24.55857909,0],[108.78728282,24.55853424,0],[108.78734178,24.55852319,0],[108.78769539,24.55845519,0],[108.78726512,24.55818207,0],[108.78717697,24.55806428,0],[108.78710877,24.55791048,0],[108.78710956,24.55777506,0],[108.78718936,24.55763101,0],[108.78731831,24.5575233,0],[108.78758528,24.55744335,0],[108.78763484,24.55740748,0],[108.78764508,24.55734433,0],[108.78760612,24.55725387,0],[108.78755724,24.55717238,0],[108.78745896,24.55709968,0],[108.78737039,24.55705411,0],[108.78726187,24.55704455,0],[108.78723252,24.55699927,0],[108.78725294,24.55688201,0],[108.78724407,24.55671044,0],[108.78717556,24.5566108,0],[108.787038,24.55650179,0],[108.78673281,24.55636489,0],[108.78634809,24.55632691,0],[108.78618077,24.55624484,0],[108.78612154,24.55624455,0],[108.78604279,24.55620806,0],[108.78598415,24.55610847,0],[108.78599439,24.55604532,0],[108.78599402,24.55604493,0],[108.78593554,24.55598184,0],[108.78591802,24.55588248,0],[108.78591643,24.55587341,0],[108.78610496,24.5557028,0],[108.78634268,24.55555952,0],[108.78646207,24.5553976,0],[108.7864626,24.55530732,0],[108.78643325,24.55526204,0],[108.78632489,24.5552254,0],[108.78605855,24.55519702,0],[108.78597531,24.55516269,0],[108.78596993,24.55516048,0],[108.78568391,24.55512297,0],[108.78558743,24.55515637,0],[108.78555533,24.55516748,0],[108.78551107,24.55519829,0],[108.7854265,24.55525713,0],[108.78534265,24.55529073,0],[108.78533745,24.55529281,0],[108.78517958,24.55528301,0],[108.78516309,24.55528089,0],[108.78485513,24.55524129,0],[108.78483055,24.55523813,0]]]}},{"type":"Feature","id":"spoil-site-8","properties":{"name":"K211+600右侧20m弃渣场","sourceLayer":"弃渣场","sourceFile":"G7221罗城至宜州段弃渣场9处.kml","objectType":"spoil-site","description":"<![CDATA[分部：3分部、1标<br/>属地：宜州<br/>计划弃方量：18.8万方<br/>临时占地：42.38亩<br/>Excel CAD占地面积：28254㎡<br/>拟堆放最大高度：30m<br/>范围状态：原设计KML边界保留<br/>Excel备注：变更、提级、五级变四级<br/>原KML要素：堆渣线_50511]]>","编号":"8","分部":"3分部、1标","属地":"宜州","计划弃方量":"18.8万方","临时占地":"42.38亩","CAD占地面积":"28254㎡","拟堆放最大高度":"30m","更新状态":"原设计KML边界保留","原KML要素编号":"堆渣线_50511","Excel备注":"变更、提级、五级变四级","stroke":"#ffd84a","stroke-opacity":1,"stroke-width":4,"fill":"#ff9f2f","fill-opacity":0.18},"geometry":{"type":"Polygon","coordinates":[[[108.74445441,24.54225146,0],[108.74478406,24.54248515,0],[108.74479142,24.54248687,0],[108.74482566,24.54244816,0],[108.74483117,24.54244194,0],[108.74503848,24.54243398,0],[108.74504068,24.54242903,0],[108.74507851,24.5423439,0],[108.74508108,24.54234158,0],[108.74510829,24.54231697,0],[108.74528626,24.54226372,0],[108.74528709,24.5422595,0],[108.74533722,24.54200217,0],[108.74540719,24.54185809,0],[108.745755,24.54147168,0],[108.74603406,24.54103075,0],[108.74623244,24.54086926,0],[108.7464699,24.54077118,0],[108.74662853,24.54065463,0],[108.74661424,24.54044543,0],[108.74661686,24.54042712,0],[108.74624976,24.54013519,0],[108.74623616,24.54013926,0],[108.74622723,24.54014907,0],[108.74597911,24.54033531,0],[108.74578112,24.5404336,0],[108.74568243,24.54043309,0],[108.74557454,24.5403242,0],[108.74548583,24.54030569,0],[108.74543609,24.54036863,0],[108.74541502,24.54058519,0],[108.74535509,24.54070225,0],[108.74515687,24.54083665,0],[108.74499786,24.54101638,0],[108.744899,24.54104296,0],[108.74471171,24.54100588,0],[108.74458419,24.54087883,0],[108.74449642,24.54070685,0],[108.74443893,24.54042669,0],[108.74437977,24.54041736,0],[108.74432011,24.54048927,0],[108.74422031,24.54066932,0],[108.74420866,24.54095815,0],[108.74424697,24.54114793,0],[108.74438358,24.54140142,0],[108.7444317,24.54160028,0],[108.7444215,24.5416544,0],[108.74442309,24.54165734,0],[108.74450932,24.54181735,0],[108.74451864,24.54190768,0],[108.74454797,24.54195297,0],[108.74454339,24.54196041,0],[108.74449812,24.54203396,0],[108.74449751,24.54204397,0],[108.7444875,24.54220844,0],[108.74448714,24.54221447,0],[108.74445441,24.54225146,0]]]}},{"type":"Feature","id":"spoil-site-9","properties":{"name":"K212+920右侧20m弃渣场","sourceLayer":"弃渣场","sourceFile":"G7221罗城至宜州段弃渣场9处.kml","objectType":"spoil-site","description":"<![CDATA[分部：3分部、1标<br/>属地：宜州<br/>计划弃方量：21.5万方<br/>临时占地：33.28亩<br/>Excel CAD占地面积：22193㎡<br/>拟堆放最大高度：26m<br/>范围状态：原设计KML边界保留<br/>Excel备注：变更、提级、五级变四级<br/>原KML要素：堆渣线_50617]]>","编号":"9","分部":"3分部、1标","属地":"宜州","计划弃方量":"21.5万方","临时占地":"33.28亩","CAD占地面积":"22193㎡","拟堆放最大高度":"26m","更新状态":"原设计KML边界保留","原KML要素编号":"堆渣线_50617","Excel备注":"变更、提级、五级变四级","stroke":"#ffd84a","stroke-opacity":1,"stroke-width":4,"fill":"#ff9f2f","fill-opacity":0.18},"geometry":{"type":"Polygon","coordinates":[[[108.73609948,24.53451108,0],[108.73637986,24.53453752,0],[108.73637092,24.53448669,0],[108.73637227,24.53448517,0],[108.73641068,24.53444176,0],[108.73656925,24.53433425,0],[108.73657249,24.53432268,0],[108.73660962,24.53419001,0],[108.73667954,24.53405496,0],[108.73676909,24.53393806,0],[108.73693781,24.53378546,0],[108.73712599,24.53367811,0],[108.73759071,24.53353608,0],[108.73772916,24.53347364,0],[108.73804092,24.53342082,0],[108.73765965,24.53303091,0],[108.73753452,24.53304828,0],[108.73735667,24.53308346,0],[108.73710939,24.53317245,0],[108.73694084,24.53329797,0],[108.7368518,24.53333362,0],[108.73675312,24.5333331,0],[108.73666475,24.53326042,0],[108.73663571,24.53316999,0],[108.736637,24.53296235,0],[108.73671668,24.5328454,0],[108.73671729,24.5327461,0],[108.73691836,24.53219101,0],[108.73663683,24.5318436,0],[108.73642456,24.53221193,0],[108.73633327,24.53260868,0],[108.73627361,24.53268059,0],[108.73614492,24.53274312,0],[108.73609508,24.53282411,0],[108.73611172,24.53332073,0],[108.73608099,24.53350113,0],[108.73604118,24.53355509,0],[108.73592276,24.53355448,0],[108.73576537,24.5334724,0],[108.73571591,24.5334902,0],[108.73570554,24.5335714,0],[108.73580282,24.53379761,0],[108.73581179,24.5339421,0],[108.73577186,24.53401411,0],[108.73552391,24.53421144,0],[108.73553094,24.53422449,0],[108.73554342,24.53424765,0],[108.73564183,24.5342933,0],[108.73578963,24.53433019,0],[108.73603573,24.53443078,0],[108.7360735,24.534457,0],[108.73607503,24.53445806,0],[108.73609948,24.53451108,0]]]}}]}