{"type":"FeatureCollection","features":[{"type":"Feature","properties":{"NAME":"2","__layerName":"2标段"},"geometry":{"type":"LineString","coordinates":[[109.6416969253,24.4123964367],[109.6430111949,24.4118486774],[109.6460554664,24.4126588676],[109.6551126095,24.415292484],[109.6613121496,24.4172676476],[109.6656943423,24.4194850455],[109.6688901064,24.4215245927],[109.6728569147,24.424640858],[109.6781117911,24.429615014],[109.681729381,24.4314623549],[109.6873956868,24.4327575219],[109.6943851269,24.4344151539],[109.6972617641,24.4352521892],[109.7006533488,24.4379083376],[109.7059884838,24.4430237527],[109.713416663,24.4486692869],[109.7225891909,24.4534598582],[109.7416116587,24.4597044245],[109.7424077285,24.460057928]]}}],"bbox":[109.6416969253,24.4118486774,109.7424077285,24.460057928]}