{"type":"FeatureCollection","features":[{"type":"Feature","properties":{"NAME":"未命名线_1","__layerName":"3标段"},"geometry":{"type":"LineString","coordinates":[[109.6417135078,24.4123886277],[109.6406031933,24.4132014],[109.6379602326,24.4156252499],[109.6325965208,24.4205432712],[109.6277596268,24.4250033449],[109.6265499274,24.4259585417],[109.625236904,24.4267822702],[109.6242028206,24.4271637725],[109.6228095141,24.427526541],[109.6216551251,24.4276242673],[109.6205528266,24.4275661464],[109.6136840645,24.4260642383],[109.6118263671,24.4256017302],[109.6080813479,24.4247252527],[109.6071113331,24.4245920335],[109.6056455837,24.4245040075],[109.6047905979,24.4245251195],[109.603864053,24.4246144776],[109.6019539704,24.4249947366],[109.5863132089,24.4315005991],[109.5843371212,24.4323440219],[109.576376565,24.4356670735],[109.5738628041,24.4365188446],[109.5693780478,24.4377191692],[109.5670646575,24.4382492648],[109.5515570885,24.4418021392],[109.5475160435,24.4425587594],[109.5429207957,24.4430568088],[109.5390386356,24.4431168628],[109.5315136022,24.442602807],[109.5315343287,24.4424539325],[109.5335573571,24.4426442974],[109.5363292536,24.4428462851],[109.5390409531,24.4430056037],[109.5413424671,24.4429229257],[109.5421187491,24.4427077676],[109.5424817575,24.4425341982],[109.5432371532,24.4418567403],[109.5433361477,24.4416579317],[109.5434431262,24.4416812453],[109.5428739763,24.4433835713],[109.5425186412,24.4439158415],[109.5420444217,24.4442440643],[109.5415437408,24.4442500356],[109.5412295635,24.4440668039],[109.5411125849,24.4438754993],[109.5411531304,24.4435549116],[109.5414492401,24.4432887212],[109.5428133401,24.4430666604],[109.5431959685,24.4428882345],[109.5446213331,24.4427779537],[109.5444465679,24.4426983152],[109.5439627729,24.4425356379],[109.5437190169,24.442306501],[109.5435874648,24.4419592187],[109.5435160061,24.4416376576],[109.5437079436,24.4423102875],[109.5439882424,24.4425013078],[109.5446348315,24.4427879424],[109.5472456796,24.442442921],[109.5556776095,24.440730558],[109.5713077215,24.4370586517],[109.5755023386,24.4357974371],[109.6018872919,24.4247880895],[109.6050405939,24.4243193106],[109.607217474,24.4243428505],[109.6109790053,24.4252227439],[109.6162337064,24.426487939],[109.6207018094,24.4274102743],[109.622386586,24.4273640203],[109.6238911579,24.4271269621],[109.6254834393,24.4265054038],[109.6277485406,24.4247988888],[109.6336237993,24.4193395484],[109.6409482897,24.4126298006],[109.6411115567,24.4122876357]]}}],"bbox":[109.5315136022,24.4122876357,109.6417135078,24.4442500356]}