{"type":"FeatureCollection","features":[{"type":"Feature","properties":{"NAME":"水源保护区1","__layerName":"水源保护区1"},"geometry":{"type":"Polygon","coordinates":[[[109.6321348202,24.4212026834],[109.6311765327,24.4222443653],[109.6322380831,24.4228725087],[109.6341219527,24.4235798438],[109.6370088642,24.4225185735],[109.6408735124,24.4207004021],[109.6430894547,24.4212650364],[109.6456443596,24.422637553],[109.6458966171,24.4205047294],[109.6437497194,24.4199597772],[109.6413587389,24.4194621723],[109.6398548423,24.4197970706],[109.636923758,24.4205365304],[109.6354956115,24.4209796462],[109.6334629994,24.4215013467],[109.6321348202,24.4212026834]]]}}],"bbox":[109.6311765327,24.4194621723,109.6458966171,24.4235798438]}