{"type":"FeatureCollection","features":[{"type":"Feature","properties":{"NAME":"生态保护区1","__layerName":"生态保护区1"},"geometry":{"type":"Polygon","coordinates":[[[109.7640463155,24.4764183626],[109.7644827055,24.4766286935],[109.7648922295,24.4766911476],[109.7656753309,24.4766842212],[109.7662741062,24.4766359442],[109.7665988556,24.4764268423],[109.7667799206,24.4760764073],[109.7664837222,24.4754196369],[109.7667799679,24.4755854786],[109.7672954062,24.4757487075],[109.7693376753,24.4753501736],[109.7701400762,24.4749168493],[109.7700790859,24.4744000374],[109.7687066267,24.4732346796],[109.7660060534,24.4717044305],[109.7641196662,24.4711868683],[109.7630940194,24.4703894222],[109.7627902317,24.4704733764],[109.7622874307,24.4712905601],[109.7619326402,24.4722511894],[109.762277317,24.4733329251],[109.762550575,24.4744065767],[109.7640463155,24.4764183626]]]}}],"bbox":[109.7619326402,24.4703894222,109.7701400762,24.4766911476]}